[{"OBJECT_NAME":"STARLINK-4331","OBJECT_ID":"2022-077D","EPOCH":"2026-03-09T22:56:43.694592","MEAN_MOTION":15.05646487,"ECCENTRICITY":0.00018087,"INCLINATION":97.6022,"RA_OF_ASC_NODE":251.581,"ARG_OF_PERICENTER":88.4059,"MEAN_ANOMALY":271.7375,"EPHEMERIS_TYPE":0,"CLASSIFICATION_TYPE":"U","NORAD_CAT_ID":53046,"ELEMENT_SET_NO":999,"REV_AT_EPOCH":20103,"BSTAR":7.98898e-7,"MEAN_MOTION_DOT":-4.9e-7,"MEAN_MOTION_DDOT":0},{"OBJECT_NAME":"LEMUR-2-SQUIRRELCOMM","OBJECT_ID":"2024-149DQ","EPOCH":"2026-03-09T21:26:31.466400","MEAN_MOTION":15.05887962,"ECCENTRICITY":0.00061012,"INCLINATION":97.6754,"RA_OF_ASC_NODE":150.1976,"ARG_OF_PERICENTER":42.3481,"MEAN_ANOMALY":317.8216,"EPHEMERIS_TYPE":0,"CLASSIFICATION_TYPE":"U","NORAD_CAT_ID":60578,"ELEMENT_SET_NO":999,"REV_AT_EPOCH":8545,"BSTAR":0.00060830109,"MEAN_MOTION_DOT":8.786e-5,"MEAN_MOTION_DDOT":0}]
